{"type": "FeatureCollection", "features": [ {"type": "Feature", "properties": {"norad_id": 34117, "name": "COSMOS 2251 DEB", "group": "cosmos-2251-debris", "lat": -8.551368453354051, "lon": -41.59298190086418, "alt_km": 732.9166930776328, "timestamp": "2025-12-25T03:55:56.761030+00:00", "meta": {"OBJECT_NAME": "COSMOS 2251 DEB", "OBJECT_ID": "1993-036KN", "EPOCH": "2025-12-24T14:38:06.592128", "MEAN_MOTION": 14.40058429, "ECCENTRICITY": 0.0055066, "INCLINATION": 74.0393, "RA_OF_ASC_NODE": 321.8967, "ARG_OF_PERICENTER": 34.953, "MEAN_ANOMALY": 325.522, "EPHEMERIS_TYPE": 0, "CLASSIFICATION_TYPE": "U", "NORAD_CAT_ID": 34117, "ELEMENT_SET_NO": 999, "REV_AT_EPOCH": 88294, "BSTAR": 0.0006777, "MEAN_MOTION_DOT": 2.15e-05, "MEAN_MOTION_DDOT": 0}, "tle": {"line1": "1 34117U 93036KN  25358.60979852  .00002150  00000+0  67770-3 0  9993", "line2": "2 34117  74.0393 321.8967 0055066  34.9530 325.5220 14.40058429882943"}}, "geometry": {"type": "Point", "coordinates": [-41.59298190086418, -8.551368453354051]}}, {"type": "Feature", "properties": {"norad_id": 34118, "name": "COSMOS 2251 DEB", "group": "cosmos-2251-debris", "lat": -38.15561684421771, "lon": -148.91747983698014, "alt_km": 591.0629322651566, "timestamp": "2025-12-25T03:55:56.761040+00:00", "meta": {"OBJECT_NAME": "COSMOS 2251 DEB", "OBJECT_ID": "1993-036KP", "EPOCH": "2025-12-24T17:08:02.694048", "MEAN_MOTION": 14.94319933, "ECCENTRICITY": 0.0060099, "INCLINATION": 73.9505, "RA_OF_ASC_NODE": 225.0653, "ARG_OF_PERICENTER": 52.1796, "MEAN_ANOMALY": 9.1773, "EPHEMERIS_TYPE": 0, "CLASSIFICATION_TYPE": "U", "NORAD_CAT_ID": 34118, "ELEMENT_SET_NO": 999, "REV_AT_EPOCH": 89355, "BSTAR": 0.0014476, "MEAN_MOTION_DOT": 0.00016124, "MEAN_MOTION_DDOT": 0}, "tle": {"line1": "1 34118U 93036KP  25358.71392007  .00016124  00000+0  14476-2 0  9997", "line2": "2 34118  73.9505 225.0653 0060099  52.1796   9.1773 14.94319933893558"}}, "geometry": {"type": "Point", "coordinates": [-148.91747983698014, -38.15561684421771]}}, {"type": "Feature", "properties": {"norad_id": 34120, "name": "COSMOS 2251 DEB", "group": "cosmos-2251-debris", "lat": 60.39996541566197, "lon": -134.9412281258311, "alt_km": 797.2749758938435, "timestamp": "2025-12-25T03:55:56.761051+00:00", "meta": {"OBJECT_NAME": "COSMOS 2251 DEB", "OBJECT_ID": "1993-036KR", "EPOCH": "2025-12-24T15:55:11.146080", "MEAN_MOTION": 13.98696608, "ECCENTRICITY": 0.0182474, "INCLINATION": 73.9901, "RA_OF_ASC_NODE": 195.5672, "ARG_OF_PERICENTER": 20.6119, "MEAN_ANOMALY": 43.3989, "EPHEMERIS_TYPE": 0, "CLASSIFICATION_TYPE": "U", "NORAD_CAT_ID": 34120, "ELEMENT_SET_NO": 999, "REV_AT_EPOCH": 86147, "BSTAR": 0.00028516, "MEAN_MOTION_DOT": 4.49e-06, "MEAN_MOTION_DDOT": 0}, "tle": {"line1": "1 34120U 93036KR  25358.66332345  .00000449  00000+0  28516-3 0  9997", "line2": "2 34120  73.9901 195.5672 0182474  20.6119  43.3989 13.98696608861479"}}, "geometry": {"type": "Point", "coordinates": [-134.9412281258311, 60.39996541566197]}}, {"type": "Feature", "properties": {"norad_id": 34121, "name": "COSMOS 2251 DEB", "group": "cosmos-2251-debris", "lat": -21.991771654352625, "lon": 69.22170470156343, "alt_km": 831.5318692610444, "timestamp": "2025-12-25T03:55:56.761061+00:00", "meta": {"OBJECT_NAME": "COSMOS 2251 DEB", "OBJECT_ID": "1993-036KS", "EPOCH": "2025-12-24T14:46:54.447744", "MEAN_MOTION": 13.91972432, "ECCENTRICITY": 0.0241018, "INCLINATION": 73.9922, "RA_OF_ASC_NODE": 76.818, "ARG_OF_PERICENTER": 279.7902, "MEAN_ANOMALY": 190.3129, "EPHEMERIS_TYPE": 0, "CLASSIFICATION_TYPE": "U", "NORAD_CAT_ID": 34121, "ELEMENT_SET_NO": 999, "REV_AT_EPOCH": 85290, "BSTAR": 0.0012126, "MEAN_MOTION_DOT": 1.936e-05, "MEAN_MOTION_DDOT": 0}, "tle": {"line1": "1 34121U 93036KS  25358.61590796  .00001936  00000+0  12126-2 0  9990", "line2": "2 34121  73.9922  76.8180 0241018 279.7902 190.3129 13.91972432852907"}}, "geometry": {"type": "Point", "coordinates": [69.22170470156343, -21.991771654352625]}}, {"type": "Feature", "properties": {"norad_id": 34122, "name": "COSMOS 2251 DEB", "group": "cosmos-2251-debris", "lat": -67.2782103386667, "lon": -42.14646588671602, "alt_km": 687.5357218123081, "timestamp": "2025-12-25T03:55:56.761071+00:00", "meta": {"OBJECT_NAME": "COSMOS 2251 DEB", "OBJECT_ID": "1993-036KT", "EPOCH": "2025-12-24T17:29:51.170208", "MEAN_MOTION": 14.6518112, "ECCENTRICITY": 0.0085061, "INCLINATION": 74.0363, "RA_OF_ASC_NODE": 95.5664, "ARG_OF_PERICENTER": 348.9969, "MEAN_ANOMALY": 133.1578, "EPHEMERIS_TYPE": 0, "CLASSIFICATION_TYPE": "U", "NORAD_CAT_ID": 34122, "ELEMENT_SET_NO": 999, "REV_AT_EPOCH": 88860, "BSTAR": 0.0010514, "MEAN_MOTION_DOT": 5.939e-05, "MEAN_MOTION_DDOT": 0}, "tle": {"line1": "1 34122U 93036KT  25358.72906447  .00005939  00000+0  10514-2 0  9993", "line2": "2 34122  74.0363  95.5664 0085061 348.9969 133.1578 14.65181120888607"}}, "geometry": {"type": "Point", "coordinates": [-42.14646588671602, -67.2782103386667]}}, {"type": "Feature", "properties": {"norad_id": 34127, "name": "COSMOS 2251 DEB", "group": "cosmos-2251-debris", "lat": 67.55005383862691, "lon": 158.07808032679534, "alt_km": 810.2361438198213, "timestamp": "2025-12-25T03:55:56.761082+00:00", "meta": {"OBJECT_NAME": "COSMOS 2251 DEB", "OBJECT_ID": "1993-036KY", "EPOCH": "2025-12-24T12:55:14.412864", "MEAN_MOTION": 14.3164566, "ECCENTRICITY": 0.0114643, "INCLINATION": 74.1798, "RA_OF_ASC_NODE": 22.5388, "ARG_OF_PERICENTER": 220.1374, "MEAN_ANOMALY": 264.7473, "EPHEMERIS_TYPE": 0, "CLASSIFICATION_TYPE": "U", "NORAD_CAT_ID": 34127, "ELEMENT_SET_NO": 999, "REV_AT_EPOCH": 86940, "BSTAR": 0.0015209, "MEAN_MOTION_DOT": 4.333e-05, "MEAN_MOTION_DDOT": 0}, "tle": {"line1": "1 34127U 93036KY  25358.53836126  .00004333  00000+0  15209-2 0  9996", "line2": "2 34127  74.1798  22.5388 0114643 220.1374 264.7473 14.31645660869407"}}, "geometry": {"type": "Point", "coordinates": [158.07808032679534, 67.55005383862691]}}, {"type": "Feature", "properties": {"norad_id": 34128, "name": "COSMOS 2251 DEB", "group": "cosmos-2251-debris", "lat": -12.0837275197845, "lon": 94.88265137904561, "alt_km": 583.8637425824436, "timestamp": "2025-12-25T03:55:56.761092+00:00", "meta": {"OBJECT_NAME": "COSMOS 2251 DEB", "OBJECT_ID": "1993-036KZ", "EPOCH": "2025-12-24T20:58:40.497312", "MEAN_MOTION": 15.01612252, "ECCENTRICITY": 0.0025991, "INCLINATION": 73.999, "RA_OF_ASC_NODE": 271.952, "ARG_OF_PERICENTER": 21.2594, "MEAN_ANOMALY": 45.372, "EPHEMERIS_TYPE": 0, "CLASSIFICATION_TYPE": "U", "NORAD_CAT_ID": 34128, "ELEMENT_SET_NO": 999, "REV_AT_EPOCH": 89349, "BSTAR": 0.001465, "MEAN_MOTION_DOT": 0.00019158, "MEAN_MOTION_DDOT": 0}, "tle": {"line1": "1 34128U 93036KZ  25358.87407983  .00019158  00000+0  14650-2 0  9999", "line2": "2 34128  73.9990 271.9520 0025991  21.2594  45.3720 15.01612252893491"}}, "geometry": {"type": "Point", "coordinates": [94.88265137904561, -12.0837275197845]}}, {"type": "Feature", "properties": {"norad_id": 34129, "name": "COSMOS 2251 DEB", "group": "cosmos-2251-debris", "lat": 45.470470706077506, "lon": -27.8710292732363, "alt_km": 615.1135967063046, "timestamp": "2025-12-25T03:55:56.761102+00:00", "meta": {"OBJECT_NAME": "COSMOS 2251 DEB", "OBJECT_ID": "1993-036LA", "EPOCH": "2025-12-24T14:42:13.752288", "MEAN_MOTION": 14.75948482, "ECCENTRICITY": 0.003349, "INCLINATION": 74.0359, "RA_OF_ASC_NODE": 316.2895, "ARG_OF_PERICENTER": 34.2346, "MEAN_ANOMALY": 326.0977, "EPHEMERIS_TYPE": 0, "CLASSIFICATION_TYPE": "U", "NORAD_CAT_ID": 34129, "ELEMENT_SET_NO": 999, "REV_AT_EPOCH": 61473, "BSTAR": 0.0016159, "MEAN_MOTION_DOT": 0.00011201, "MEAN_MOTION_DDOT": 0}, "tle": {"line1": "1 34129U 93036LA  25358.61265917  .00011201  00000+0  16159-2 0  9998", "line2": "2 34129  74.0359 316.2895 0033490  34.2346 326.0977 14.75948482614731"}}, "geometry": {"type": "Point", "coordinates": [-27.8710292732363, 45.470470706077506]}}, {"type": "Feature", "properties": {"norad_id": 34136, "name": "COSMOS 2251 DEB", "group": "cosmos-2251-debris", "lat": 30.950324524657283, "lon": 28.023721444714315, "alt_km": 642.0467916940661, "timestamp": "2025-12-25T03:55:56.761113+00:00", "meta": {"OBJECT_NAME": "COSMOS 2251 DEB", "OBJECT_ID": "1993-036LH", "EPOCH": "2025-12-24T03:43:58.429632", "MEAN_MOTION": 14.80147917, "ECCENTRICITY": 0.00850421, "INCLINATION": 74.0198, "RA_OF_ASC_NODE": 20.1164, "ARG_OF_PERICENTER": 139.9525, "MEAN_ANOMALY": 282.829, "EPHEMERIS_TYPE": 0, "CLASSIFICATION_TYPE": "U", "NORAD_CAT_ID": 34136, "ELEMENT_SET_NO": 999, "REV_AT_EPOCH": 90179, "BSTAR": 0.00037289502, "MEAN_MOTION_DOT": 2.975e-05, "MEAN_MOTION_DDOT": 0}, "tle": {"line1": "1 34136U 93036LH  25358.15553738  .00002975  00000+0  37290-3 0  9994", "line2": "2 34136  74.0198  20.1164 0085042 139.9525 282.8290 14.80147917901794"}}, "geometry": {"type": "Point", "coordinates": [28.023721444714315, 30.950324524657283]}}, {"type": "Feature", "properties": {"norad_id": 34139, "name": "COSMOS 2251 DEB", "group": "cosmos-2251-debris", "lat": -69.47186009035364, "lon": 100.27009134553224, "alt_km": 680.4225458238689, "timestamp": "2025-12-25T03:55:56.761123+00:00", "meta": {"OBJECT_NAME": "COSMOS 2251 DEB", "OBJECT_ID": "1993-036LL", "EPOCH": "2025-12-24T17:10:19.282080", "MEAN_MOTION": 14.59210163, "ECCENTRICITY": 0.0042425, "INCLINATION": 74.0294, "RA_OF_ASC_NODE": 231.2344, "ARG_OF_PERICENTER": 300.3247, "MEAN_ANOMALY": 122.6243, "EPHEMERIS_TYPE": 0, "CLASSIFICATION_TYPE": "U", "NORAD_CAT_ID": 34139, "ELEMENT_SET_NO": 999, "REV_AT_EPOCH": 88324, "BSTAR": 0.0012979, "MEAN_MOTION_DOT": 6.174e-05, "MEAN_MOTION_DDOT": 0}, "tle": {"line1": "1 34139U 93036LL  25358.71550095  .00006174  00000+0  12979-2 0  9993", "line2": "2 34139  74.0294 231.2344 0042425 300.3247 122.6243 14.59210163883240"}}, "geometry": {"type": "Point", "coordinates": [100.27009134553224, -69.47186009035364]}}]}